{"type": "FeatureCollection", "features": [{"type": "Feature", "properties": {"norad_id": 50032, "name": "COSMOS 1408 DEB", "group": "cosmos-1408-debris", "lat": 70.66914431801074, "lon": -154.36422436653876, "alt_km": 416.82030114254667, "timestamp": "2025-12-23T11:34:48.434777+00:00", "meta": {"OBJECT_NAME": "COSMOS 1408 DEB", "OBJECT_ID": "1982-092RU", "EPOCH": "2025-12-23T03:20:47.627232", "MEAN_MOTION": 15.45793581, "ECCENTRICITY": 0.0016305, "INCLINATION": 82.563, "RA_OF_ASC_NODE": 47.8493, "ARG_OF_PERICENTER": 170.0487, "MEAN_ANOMALY": 190.1088, "EPHEMERIS_TYPE": 0, "CLASSIFICATION_TYPE": "U", "NORAD_CAT_ID": 50032, "ELEMENT_SET_NO": 999, "REV_AT_EPOCH": 22764, "BSTAR": 0.00011107, "MEAN_MOTION_DOT": 5.445e-05, "MEAN_MOTION_DDOT": 0}, "tle": {"line1": "1 50032U 82092RU  25357.13944013  .00005445  00000+0  11107-3 0  9998", "line2": "2 50032  82.5630  47.8493 0016305 170.0487 190.1088 15.45793581227649"}}, "geometry": {"type": "Point", "coordinates": [-154.36422436653876, 70.66914431801074]}}, {"type": "Feature", "properties": {"norad_id": 50058, "name": "COSMOS 1408 DEB", "group": "cosmos-1408-debris", "lat": -48.898533586399175, "lon": 49.53939894552, "alt_km": 384.96927445449273, "timestamp": "2025-12-23T11:34:48.434797+00:00", "meta": {"OBJECT_NAME": "COSMOS 1408 DEB", "OBJECT_ID": "1982-092SW", "EPOCH": "2025-12-23T04:07:00.859008", "MEAN_MOTION": 15.64713, "ECCENTRICITY": 0.0015984, "INCLINATION": 82.6118, "RA_OF_ASC_NODE": 58.4192, "ARG_OF_PERICENTER": 63.7743, "MEAN_ANOMALY": 296.5157, "EPHEMERIS_TYPE": 0, "CLASSIFICATION_TYPE": "U", "NORAD_CAT_ID": 50058, "ELEMENT_SET_NO": 999, "REV_AT_EPOCH": 22967, "BSTAR": 0.00034025, "MEAN_MOTION_DOT": 0.00033308, "MEAN_MOTION_DDOT": 0}, "tle": {"line1": "1 50058U 82092SW  25357.17153772  .00033308  00000+0  34025-3 0  9997", "line2": "2 50058  82.6118  58.4192 0015984  63.7743 296.5157 15.64713000229670"}}, "geometry": {"type": "Point", "coordinates": [49.53939894552, -48.898533586399175]}}, {"type": "Feature", "properties": {"norad_id": 50404, "name": "COSMOS 1408 DEB", "group": "cosmos-1408-debris", "lat": -59.98801498843512, "lon": -169.70188947246146, "alt_km": 610.684235474595, "timestamp": "2025-12-23T11:34:48.434809+00:00", "meta": {"OBJECT_NAME": "COSMOS 1408 DEB", "OBJECT_ID": "1982-092ADS", "EPOCH": "2025-12-23T00:45:48.911040", "MEAN_MOTION": 15.15350794, "ECCENTRICITY": 0.0167782, "INCLINATION": 82.2023, "RA_OF_ASC_NODE": 204.4845, "ARG_OF_PERICENTER": 163.5527, "MEAN_ANOMALY": 197.1246, "EPHEMERIS_TYPE": 0, "CLASSIFICATION_TYPE": "U", "NORAD_CAT_ID": 50404, "ELEMENT_SET_NO": 999, "REV_AT_EPOCH": 21349, "BSTAR": 0.0032418, "MEAN_MOTION_DOT": 0.00088331, "MEAN_MOTION_DDOT": 0}, "tle": {"line1": "1 50404U 82092ADS 25357.03181610  .00088331  00000+0  32418-2 0  9998", "line2": "2 50404  82.2023 204.4845 0167782 163.5527 197.1246 15.15350794213498"}}, "geometry": {"type": "Point", "coordinates": [-169.70188947246146, -59.98801498843512]}}, {"type": "Feature", "properties": {"norad_id": 50621, "name": "COSMOS 1408 DEB", "group": "cosmos-1408-debris", "lat": 37.2682954428587, "lon": 68.69261768334223, "alt_km": 388.3556932291649, "timestamp": "2025-12-23T11:34:48.434819+00:00", "meta": {"OBJECT_NAME": "COSMOS 1408 DEB", "OBJECT_ID": "1982-092ALR", "EPOCH": "2025-12-22T15:22:09.683040", "MEAN_MOTION": 15.5714769, "ECCENTRICITY": 0.0029076, "INCLINATION": 82.5692, "RA_OF_ASC_NODE": 63.8704, "ARG_OF_PERICENTER": 116.7559, "MEAN_ANOMALY": 243.6676, "EPHEMERIS_TYPE": 0, "CLASSIFICATION_TYPE": "U", "NORAD_CAT_ID": 50621, "ELEMENT_SET_NO": 999, "REV_AT_EPOCH": 22404, "BSTAR": 0.00038327, "MEAN_MOTION_DOT": 0.00028443, "MEAN_MOTION_DDOT": 0}, "tle": {"line1": "1 50621U 82092ALR 25356.64038985  .00028443  00000+0  38327-3 0  9995", "line2": "2 50621  82.5692  63.8704 0029076 116.7559 243.6676 15.57147690224045"}}, "geometry": {"type": "Point", "coordinates": [68.69261768334223, 37.2682954428587]}}]}